     2.100          NAVIGATION                              RINEX VERSION / TYPE
fic2rin                                 06/19/2014 00:17:32 PGM / RUN BY / DATE
                                                            END OF HEADER
10 14  6 18  4  0  0.0 -.130150932819D-03 -.147792889038D-11  .000000000000D+00
     .580000000000D+02  .473125000000D+02  .540879672667D-08  .855545249145D+00
     .277161598206D-05  .136008062400D-01  .792741775513D-05  .515373627281D+04
     .273600000000D+06 -.428408384323D-07 -.101633515602D+01  .128522515297D-06
     .941708410301D+00  .217218750000D+03  .867797078340D+00 -.870179103595D-08
     .133934150324D-09  .100000000000D+01  .179700000000D+04  .000000000000D+00
     .240000000000D+01  .000000000000D+00 -.279396772385D-08  .580000000000D+02
     .266406000000D+06  .400000000000D+01
11 14  6 18  4  0  0.0 -.498205423355D-03 -.306954461848D-11  .000000000000D+00
     .980000000000D+02 -.867187500000D+02  .599667835715D-08 -.279815791314D+01
    -.468641519547D-05  .150406433968D-01  .102706253529D-04  .515371103287D+04
     .273600000000D+06  .309199094772D-06 -.239722212574D+01 -.260770320892D-07
     .890778626060D+00  .137093750000D+03  .129394765299D+01 -.854499879064D-08
     .250010413937D-10  .100000000000D+01  .179700000000D+04  .000000000000D+00
     .340000000000D+01  .000000000000D+00 -.121071934700D-07  .980000000000D+02
     .266406000000D+06  .400000000000D+01
12 14  6 18  4  0  0.0  .212275423110D-03  .250111042988D-11  .000000000000D+00
     .740000000000D+02  .405625000000D+02  .389301930274D-08  .286014586442D+01
     .216253101826D-05  .515074585564D-02  .576861202717D-05  .515360523796D+04
     .273600000000D+06 -.540167093277D-07  .215236029326D+01 -.633299350739D-07
     .987620828795D+00  .281781250000D+03  .462919471346D+00 -.790461497323D-08
     .385373195198D-09  .100000000000D+01  .179700000000D+04  .000000000000D+00
     .240000000000D+01  .000000000000D+00 -.121071934700D-07  .740000000000D+02
     .266406000000D+06  .400000000000D+01
13 14  6 18  4  0  0.0 -.115977600217D-04 -.386535248253D-11  .000000000000D+00
     .860000000000D+02 -.114687500000D+02  .432160858377D-08 -.644054168241D+00
    -.681728124619D-06  .535795534961D-02  .730529427528D-05  .515357113457D+04
     .273600000000D+06 -.800937414169D-07  .124619112532D+00 -.204890966415D-07
     .977695175397D+00  .247750000000D+03  .228801937267D+01 -.805497837932D-08
    -.483591572101D-09  .100000000000D+01  .179700000000D+04  .000000000000D+00
     .240000000000D+01  .000000000000D+00 -.111758708954D-07  .860000000000D+02
     .266406000000D+06  .400000000000D+01
14 14  6 18  4  0  0.0  .162597745657D-03 -.352429196937D-11  .000000000000D+00
     .370000000000D+02 -.703125000000D+01  .456126142342D-08 -.273779593093D+00
    -.329688191414D-06  .762080424465D-02  .656023621559D-05  .515367159271D+04
     .273600000000D+06 -.521540641785D-07  .926242354055D-01  .502914190292D-07
     .970242947816D+00  .258781250000D+03 -.200055148771D+01 -.829070248389D-08
    -.489306095849D-09  .100000000000D+01  .179700000000D+04  .000000000000D+00
     .240000000000D+01  .000000000000D+00 -.931322574615D-08  .370000000000D+02
     .266406000000D+06  .400000000000D+01
15 14  6 18  4  0  0.0 -.185930170119D-03 -.216004991671D-11  .000000000000D+00
     .340000000000D+02 -.462500000000D+01  .531700718898D-08 -.889947372600D+00
    -.290572643280D-06  .629597436637D-02  .573135912418D-05  .515370369148D+04
     .273600000000D+06  .184401869774D-06 -.200334020602D-01 -.540167093277D-07
     .936791880571D+00  .257937500000D+03  .273928768313D+00 -.854714173705D-08
    -.436089593453D-09  .100000000000D+01  .179700000000D+04  .000000000000D+00
     .240000000000D+01  .000000000000D+00 -.102445483208D-07  .340000000000D+02
     .266406000000D+06  .400000000000D+01
16 14  6 18  4  0  0.0 -.212520360947D-03  .204636307899D-11  .000000000000D+00
     .105000000000D+03  .427500000000D+02  .395516474849D-08  .737149812906D+00
     .232830643654D-05  .773059076164D-02  .487454235554D-05  .515360631943D+04
     .273600000000D+06  .819563865662D-07  .217092617197D+01  .223517417908D-06
     .988229171575D+00  .299500000000D+03  .223394353774D+00 -.803819196582D-08
     .322870591713D-09  .100000000000D+01  .179700000000D+04  .000000000000D+00
     .240000000000D+01  .000000000000D+00 -.102445483208D-07  .105000000000D+03
     .266406000000D+06  .400000000000D+01
17 14  6 18  4  0  0.0 -.102151185274D-03 -.295585778076D-11  .000000000000D+00
     .530000000000D+02 -.792812500000D+02  .468590947265D-08 -.185304123141D+00
    -.413507223129D-05  .932011543773D-02  .574998557568D-05  .515360552406D+04
     .273600000000D+06 -.409781932831D-07 -.308079155019D+01  .160187482834D-06
     .969228991981D+00  .277625000000D+03 -.209927431991D+01 -.842677958062D-08
    -.717887045734D-10  .100000000000D+01  .179700000000D+04  .000000000000D+00
     .240000000000D+01  .000000000000D+00 -.102445483208D-07  .530000000000D+02
     .266406000000D+06  .400000000000D+01
18 14  6 18  4  0  0.0  .326135661453D-03  .238742359215D-11  .000000000000D+00
     .160000000000D+02  .432500000000D+02  .567523639638D-08  .138727227067D+01
     .218302011490D-05  .154061065987D-01  .780634582043D-05  .515370303535D+04
     .273600000000D+06 -.426545739174D-06 -.103922350854D+01 -.502914190292D-07
     .925462361245D+00  .216250000000D+03 -.203095121652D+01 -.878215152615D-08
     .165364030933D-09  .100000000000D+01  .179700000000D+04  .000000000000D+00
     .240000000000D+01  .000000000000D+00 -.111758708954D-07  .160000000000D+02
     .266406000000D+06  .400000000000D+01
19 14  6 18  4  0  0.0 -.463310163468D-03 -.216004991671D-11  .000000000000D+00
     .112000000000D+03 -.831562500000D+02  .464805075283D-08 -.987135899247D+00
    -.428222119808D-05  .104336686200D-01  .572949647903D-05  .515362214470D+04
     .273600000000D+06  .176951289177D-06 -.303006849822D+01 -.279396772385D-07
     .966345121090D+00  .265781250000D+03  .448144175758D+00 -.826391565383D-08
    -.628597612185D-10  .100000000000D+01  .179700000000D+04  .000000000000D+00
     .240000000000D+01  .000000000000D+00 -.149011611938D-07  .112000000000D+03
     .266406000000D+06  .400000000000D+01
20 14  6 18  4  0  0.0  .201177783310D-03  .409272615798D-11  .000000000000D+00
     .830000000000D+02  .565000000000D+02  .559916179899D-08  .189709700644D+01
     .275298953056D-05  .574630091432D-02  .770390033722D-05  .515377437782D+04
     .273600000000D+06  .167638063431D-07 -.109228709192D+01 -.119209289551D-06
     .926454595673D+00  .210187500000D+03  .133207721857D+01 -.853356974315D-08
     .303941231801D-09  .100000000000D+01  .179700000000D+04  .000000000000D+00
     .240000000000D+01  .000000000000D+00 -.838190317154D-08  .830000000000D+02
     .266406000000D+06  .400000000000D+01
21 14  6 18  4  0  0.0 -.367630738765D-03 -.216004991671D-11  .000000000000D+00
     .960000000000D+02 -.477812500000D+02  .500770859116D-08  .234148411452D+01
    -.265054404736D-05  .215339071583D-01  .108890235424D-04  .515374919128D+04
     .273600000000D+06  .102445483208D-06 -.208458310554D+01 -.379979610443D-06
     .932311920705D+00  .154312500000D+03 -.201675429144D+01 -.791032949697D-08
     .109290266664D-09  .100000000000D+01  .179700000000D+04  .000000000000D+00
     .240000000000D+01  .000000000000D+00 -.111758708954D-07  .960000000000D+02
     .266406000000D+06  .400000000000D+01
22 14  6 18  4  0  0.0  .243069138378D-03  .295585778076D-11  .000000000000D+00
     .950000000000D+02  .543125000000D+02  .581095633537D-08  .827550276779D+00
     .297278165817D-05  .732646614779D-02  .736117362976D-05  .515372451782D+04
     .273600000000D+06 -.819563865662D-07 -.103737670320D+01  .968575477600D-07
     .923242321617D+00  .220375000000D+03 -.205469776506D+01 -.882501045425D-08
     .146791828755D-09  .100000000000D+01  .179700000000D+04  .000000000000D+00
     .485000000000D+01  .000000000000D+00 -.172294676304D-07  .950000000000D+02
     .266406000000D+06  .400000000000D+01
24 14  6 18  4  0  0.0 -.303583219647D-04 -.682121026330D-12  .000000000000D+00
     .610000000000D+02  .180000000000D+02  .427732102473D-08 -.215409301147D+01
     .106543302536D-05  .208523788024D-02  .994279980659D-05  .515372994041D+04
     .273600000000D+06 -.100582838058D-06  .105362929004D+01  .558793544769D-07
     .956661776666D+00  .187031250000D+03  .343627087847D+00 -.792568727955D-08
    -.125362364703D-09  .100000000000D+01  .179700000000D+04  .000000000000D+00
     .240000000000D+01  .000000000000D+00  .279396772385D-08  .610000000000D+02
     .266406000000D+06  .400000000000D+01
25 14  6 18  4  0  0.0  .248644500971D-04  .113686837722D-12  .000000000000D+00
     .190000000000D+02  .433125000000D+02  .413945813933D-08  .209568968493D+01
     .229105353355D-05  .367446662858D-02  .543333590031D-05  .515359936142D+04
     .273600000000D+06 -.106170773506D-06  .210967327997D+01 -.428408384323D-07
     .976303037683D+00  .281062500000D+03  .704847329458D+00 -.811319509000D-08
     .364658046614D-09  .100000000000D+01  .179700000000D+04  .000000000000D+00
     .240000000000D+01  .000000000000D+00  .512227416039D-08  .190000000000D+02
     .266406000000D+06  .400000000000D+01
26 14  6 18  4  0  0.0  .431048683822D-04 -.122781784739D-10  .000000000000D+00
     .490000000000D+02 -.453125000000D+01  .439589739249D-08 -.143737194838D+01
     .745058059692D-08  .212960162899D-01  .658258795738D-05  .515368976593D+04
     .273600000000D+06  .309199094772D-06  .115803704238D+00  .488013029099D-06
     .975078178800D+00  .258875000000D+03  .128636182296D+01 -.804604943597D-08
    -.547522806523D-09  .100000000000D+01  .179700000000D+04  .000000000000D+00
     .240000000000D+01  .000000000000D+00 -.605359673500D-08  .490000000000D+02
     .266406000000D+06  .400000000000D+01
